[
  {
    "OBJECT_NAME": "STARLINK-31713",
    "OBJECT_ID": "24062H",
    "EPOCH": "2025-11-11T01:54:01.952928",
    "MEAN_MOTION": 15.30176108,
    "ECCENTRICITY": 0.0002048,
    "INCLINATION": 53.1572,
    "RA_OF_ASC_NODE": 89.2946,
    "ARG_OF_PERICENTER": 83.1101,
    "MEAN_ANOMALY": 277.0132,
    "EPHEMERIS_TYPE": 0,
    "CLASSIFICATION_TYPE": "U",
    "NORAD_CAT_ID": 59381,
    "ELEMENT_SET_NO": 999,
    "REV_AT_EPOCH": 9143,
    "BSTAR": 6.0578e-05,
    "MEAN_MOTION_DOT": 1.434e-05,
    "MEAN_MOTION_DDOT": 0.0,
    "TLE_LINE1": "1 59381U 24062H   25315.07918927  .00001434  00000+0  60578-4 0  9990",
    "TLE_LINE2": "2 59381  53.1572  89.2946 0002048  83.1101 277.0132 15.30176108 91438",
    "COMMENT": "Grouped by shell and plane from TLE"
  },
  {
    "OBJECT_NAME": "STARLINK-31705",
    "OBJECT_ID": "24062J",
    "EPOCH": "2025-11-10T15:26:37.618080",
    "MEAN_MOTION": 15.30193175,
    "ECCENTRICITY": 0.0001404,
    "INCLINATION": 53.1621,
    "RA_OF_ASC_NODE": 88.7082,
    "ARG_OF_PERICENTER": 80.2366,
    "MEAN_ANOMALY": 279.8794,
    "EPHEMERIS_TYPE": 0,
    "CLASSIFICATION_TYPE": "U",
    "NORAD_CAT_ID": 59382,
    "ELEMENT_SET_NO": 999,
    "REV_AT_EPOCH": 9140,
    "BSTAR": 6.1003e-05,
    "MEAN_MOTION_DOT": 1.447e-05,
    "MEAN_MOTION_DDOT": 0.0,
    "TLE_LINE1": "1 59382U 24062J   25314.64349095  .00001447  00000+0  61003-4 0  9995",
    "TLE_LINE2": "2 59382  53.1621  88.7082 0001404  80.2366 279.8794 15.30193175 91409",
    "COMMENT": "Grouped by shell and plane from TLE"
  },
  {
    "OBJECT_NAME": "STARLINK-31715",
    "OBJECT_ID": "24062L",
    "EPOCH": "2025-11-11T02:00:41.497632",
    "MEAN_MOTION": 15.30196361,
    "ECCENTRICITY": 0.0001534,
    "INCLINATION": 53.1613,
    "RA_OF_ASC_NODE": 86.4838,
    "ARG_OF_PERICENTER": 89.2529,
    "MEAN_ANOMALY": 270.8647,
    "EPHEMERIS_TYPE": 0,
    "CLASSIFICATION_TYPE": "U",
    "NORAD_CAT_ID": 59384,
    "ELEMENT_SET_NO": 999,
    "REV_AT_EPOCH": 9151,
    "BSTAR": 4.8261e-05,
    "MEAN_MOTION_DOT": 1.07e-05,
    "MEAN_MOTION_DDOT": 0.0,
    "TLE_LINE1": "1 59384U 24062L   25315.08381363  .00001070  00000+0  48261-4 0  9993",
    "TLE_LINE2": "2 59384  53.1613  86.4838 0001534  89.2529 270.8647 15.30196361 91510",
    "COMMENT": "Grouped by shell and plane from TLE"
  },
  {
    "OBJECT_NAME": "STARLINK-31717",
    "OBJECT_ID": "24062M",
    "EPOCH": "2025-11-10T15:40:18.731712",
    "MEAN_MOTION": 15.3019603,
    "ECCENTRICITY": 9.05e-05,
    "INCLINATION": 53.1596,
    "RA_OF_ASC_NODE": 88.7672,
    "ARG_OF_PERICENTER": 77.2827,
    "MEAN_ANOMALY": 282.8275,
    "EPHEMERIS_TYPE": 0,
    "CLASSIFICATION_TYPE": "U",
    "NORAD_CAT_ID": 59385,
    "ELEMENT_SET_NO": 999,
    "REV_AT_EPOCH": 9143,
    "BSTAR": 5.593900000000001e-05,
    "MEAN_MOTION_DOT": 1.298e-05,
    "MEAN_MOTION_DDOT": 0.0,
    "TLE_LINE1": "1 59385U 24062M   25314.65299458  .00001298  00000+0  55939-4 0  9991",
    "TLE_LINE2": "2 59385  53.1596  88.7672 0000905  77.2827 282.8275 15.30196030 91435",
    "COMMENT": "Grouped by shell and plane from TLE"
  },
  {
    "OBJECT_NAME": "STARLINK-31688",
    "OBJECT_ID": "24062N",
    "EPOCH": "2025-11-11T01:49:27.618240",
    "MEAN_MOTION": 15.30190825,
    "ECCENTRICITY": 9.77e-05,
    "INCLINATION": 53.1636,
    "RA_OF_ASC_NODE": 89.2763,
    "ARG_OF_PERICENTER": 88.2236,
    "MEAN_ANOMALY": 271.8877,
    "EPHEMERIS_TYPE": 0,
    "CLASSIFICATION_TYPE": "U",
    "NORAD_CAT_ID": 59386,
    "ELEMENT_SET_NO": 999,
    "REV_AT_EPOCH": 9143,
    "BSTAR": 4.0646000000000004e-05,
    "MEAN_MOTION_DOT": 8.45e-06,
    "MEAN_MOTION_DDOT": 0.0,
    "TLE_LINE1": "1 59386U 24062N   25315.07601410  .00000845  00000+0  40646-4 0  9990",
    "TLE_LINE2": "2 59386  53.1636  89.2763 0000977  88.2236 271.8877 15.30190825 91435",
    "COMMENT": "Grouped by shell and plane from TLE"
  },
  {
    "OBJECT_NAME": "STARLINK-31714",
    "OBJECT_ID": "24062P",
    "EPOCH": "2025-11-10T15:44:51.887040",
    "MEAN_MOTION": 15.30194839,
    "ECCENTRICITY": 9.46e-05,
    "INCLINATION": 53.164,
    "RA_OF_ASC_NODE": 88.7895,
    "ARG_OF_PERICENTER": 65.506,
    "MEAN_ANOMALY": 294.604,
    "EPHEMERIS_TYPE": 0,
    "CLASSIFICATION_TYPE": "U",
    "NORAD_CAT_ID": 59387,
    "ELEMENT_SET_NO": 999,
    "REV_AT_EPOCH": 9139,
    "BSTAR": 2.2296e-05,
    "MEAN_MOTION_DOT": 3.01e-06,
    "MEAN_MOTION_DDOT": 0.0,
    "TLE_LINE1": "1 59387U 24062P   25314.65615610  .00000301  00000+0  22296-4 0  9999",
    "TLE_LINE2": "2 59387  53.1640  88.7895 0000946  65.5060 294.6040 15.30194839 91399",
    "COMMENT": "Grouped by shell and plane from TLE"
  },
  {
    "OBJECT_NAME": "STARLINK-31643",
    "OBJECT_ID": "24062Q",
    "EPOCH": "2025-11-11T02:34:06.816576",
    "MEAN_MOTION": 15.30202165,
    "ECCENTRICITY": 6.94e-05,
    "INCLINATION": 53.1624,
    "RA_OF_ASC_NODE": 86.6259,
    "ARG_OF_PERICENTER": 63.3798,
    "MEAN_ANOMALY": 296.7274,
    "EPHEMERIS_TYPE": 0,
    "CLASSIFICATION_TYPE": "U",
    "NORAD_CAT_ID": 59388,
    "ELEMENT_SET_NO": 999,
    "REV_AT_EPOCH": 9151,
    "BSTAR": 4.1333e-05,
    "MEAN_MOTION_DOT": 8.66e-06,
    "MEAN_MOTION_DDOT": 0.0,
    "TLE_LINE1": "1 59388U 24062Q   25315.10702334  .00000866  00000+0  41333-4 0  9990",
    "TLE_LINE2": "2 59388  53.1624  86.6259 0000694  63.3798 296.7274 15.30202165 91515",
    "COMMENT": "Grouped by shell and plane from TLE"
  },
  {
    "OBJECT_NAME": "STARLINK-31647",
    "OBJECT_ID": "24062R",
    "EPOCH": "2025-11-10T19:00:35.088192",
    "MEAN_MOTION": 15.30204695,
    "ECCENTRICITY": 0.0001653,
    "INCLINATION": 53.1588,
    "RA_OF_ASC_NODE": 88.248,
    "ARG_OF_PERICENTER": 82.955,
    "MEAN_ANOMALY": 277.1639,
    "EPHEMERIS_TYPE": 0,
    "CLASSIFICATION_TYPE": "U",
    "NORAD_CAT_ID": 59389,
    "ELEMENT_SET_NO": 999,
    "REV_AT_EPOCH": 9146,
    "BSTAR": 0.0,
    "MEAN_MOTION_DOT": -7.5e-06,
    "MEAN_MOTION_DDOT": 0.0,
    "TLE_LINE1": "1 59389U 24062R   25314.79207278 -.00000750  00000+0 -13189-4 0  9994",
    "TLE_LINE2": "2 59389  53.1588  88.2480 0001653  82.9550 277.1639 15.30204695 91460",
    "COMMENT": "Grouped by shell and plane from TLE"
  },
  {
    "OBJECT_NAME": "STARLINK-31649",
    "OBJECT_ID": "24062S",
    "EPOCH": "2025-11-11T02:18:57.161952",
    "MEAN_MOTION": 15.30128763,
    "ECCENTRICITY": 0.0001931,
    "INCLINATION": 53.1621,
    "RA_OF_ASC_NODE": 86.5581,
    "ARG_OF_PERICENTER": 86.085,
    "MEAN_ANOMALY": 274.0371,
    "EPHEMERIS_TYPE": 0,
    "CLASSIFICATION_TYPE": "U",
    "NORAD_CAT_ID": 59390,
    "ELEMENT_SET_NO": 999,
    "REV_AT_EPOCH": 9151,
    "BSTAR": 0.00051923,
    "MEAN_MOTION_DOT": 0.00015016,
    "MEAN_MOTION_DDOT": 0.0,
    "TLE_LINE1": "1 59390U 24062S   25315.09649493  .00015016  00000+0  51923-3 0  9995",
    "TLE_LINE2": "2 59390  53.1621  86.5581 0001931  86.0850 274.0371 15.30128763 91516",
    "COMMENT": "Grouped by shell and plane from TLE"
  },
  {
    "OBJECT_NAME": "STARLINK-31644",
    "OBJECT_ID": "24062T",
    "EPOCH": "2025-11-11T01:44:54.715200",
    "MEAN_MOTION": 15.30150806,
    "ECCENTRICITY": 0.0001325,
    "INCLINATION": 53.1576,
    "RA_OF_ASC_NODE": 89.256,
    "ARG_OF_PERICENTER": 91.8423,
    "MEAN_ANOMALY": 268.2729,
    "EPHEMERIS_TYPE": 0,
    "CLASSIFICATION_TYPE": "U",
    "NORAD_CAT_ID": 59391,
    "ELEMENT_SET_NO": 999,
    "REV_AT_EPOCH": 9147,
    "BSTAR": 0.00037935000000000003,
    "MEAN_MOTION_DOT": 0.00010876,
    "MEAN_MOTION_DDOT": 0.0,
    "TLE_LINE1": "1 59391U 24062T   25315.07285550  .00010876  00000+0  37935-3 0  9990",
    "TLE_LINE2": "2 59391  53.1576  89.2560 0001325  91.8423 268.2729 15.30150806 91470",
    "COMMENT": "Grouped by shell and plane from TLE"
  },
  {
    "OBJECT_NAME": "STARLINK-31626",
    "OBJECT_ID": "24062U",
    "EPOCH": "2025-11-11T01:56:07.883520",
    "MEAN_MOTION": 15.30196393,
    "ECCENTRICITY": 9.18e-05,
    "INCLINATION": 53.1583,
    "RA_OF_ASC_NODE": 86.4602,
    "ARG_OF_PERICENTER": 92.144,
    "MEAN_ANOMALY": 267.9666,
    "EPHEMERIS_TYPE": 0,
    "CLASSIFICATION_TYPE": "U",
    "NORAD_CAT_ID": 59392,
    "ELEMENT_SET_NO": 999,
    "REV_AT_EPOCH": 9151,
    "BSTAR": 3.5955e-05,
    "MEAN_MOTION_DOT": 7.06e-06,
    "MEAN_MOTION_DDOT": 0.0,
    "TLE_LINE1": "1 59392U 24062U   25315.08064680  .00000706  00000+0  35955-4 0  9993",
    "TLE_LINE2": "2 59392  53.1583  86.4602 0000918  92.1440 267.9666 15.30196393 91517",
    "COMMENT": "Grouped by shell and plane from TLE"
  },
  {
    "OBJECT_NAME": "STARLINK-31607",
    "OBJECT_ID": "24062W",
    "EPOCH": "2025-11-11T02:05:15.318240",
    "MEAN_MOTION": 15.30187336,
    "ECCENTRICITY": 0.0001576,
    "INCLINATION": 53.1611,
    "RA_OF_ASC_NODE": 86.4984,
    "ARG_OF_PERICENTER": 93.4362,
    "MEAN_ANOMALY": 266.682,
    "EPHEMERIS_TYPE": 0,
    "CLASSIFICATION_TYPE": "U",
    "NORAD_CAT_ID": 59394,
    "ELEMENT_SET_NO": 999,
    "REV_AT_EPOCH": 9150,
    "BSTAR": 9.5783e-05,
    "MEAN_MOTION_DOT": 2.477e-05,
    "MEAN_MOTION_DDOT": 0.0,
    "TLE_LINE1": "1 59394U 24062W   25315.08698285  .00002477  00000+0  95783-4 0  9991",
    "TLE_LINE2": "2 59394  53.1611  86.4984 0001576  93.4362 266.6820 15.30187336 91506",
    "COMMENT": "Grouped by shell and plane from TLE"
  },
  {
    "OBJECT_NAME": "STARLINK-31608",
    "OBJECT_ID": "24062X",
    "EPOCH": "2025-11-10T15:49:25.591872",
    "MEAN_MOTION": 15.30204043,
    "ECCENTRICITY": 0.000124,
    "INCLINATION": 53.1587,
    "RA_OF_ASC_NODE": 88.8047,
    "ARG_OF_PERICENTER": 87.624,
    "MEAN_ANOMALY": 272.4903,
    "EPHEMERIS_TYPE": 0,
    "CLASSIFICATION_TYPE": "U",
    "NORAD_CAT_ID": 59397,
    "ELEMENT_SET_NO": 999,
    "REV_AT_EPOCH": 9139,
    "BSTAR": 0.00012998000000000003,
    "MEAN_MOTION_DOT": 3.493e-05,
    "MEAN_MOTION_DDOT": 0.0,
    "TLE_LINE1": "1 59397U 24062X   25314.65932398  .00003493  00000+0  12998-3 0  9997",
    "TLE_LINE2": "2 59397  53.1587  88.8047 0001240  87.6240 272.4903 15.30204043 91394",
    "COMMENT": "Grouped by shell and plane from TLE"
  }
]